     2.11           N: GPS NAV DATA                         RINEX VERSION / TYPE
TPP                 Reference Data Shop 2018-07-04 01:00:40 PGM / RUN BY / DATE 
                                                            COMMENT             
                                                            COMMENT             
                                                            COMMENT             
     .4657E-08   .1490E-07  -.5960E-07  -.1192E-06          ION ALPHA           
     .8192E+05   .8192E+05  -.6554E+05  -.5243E+06          ION BETA            
     .931322574615E-09  .266453525910E-14   233472     2008 DELTA-UTC: A0,A1,T,W
    18                                                      LEAP SECONDS        
                                                            END OF HEADER       
01 18 07 01  0  0  0.0 -.613159500062E-04 -.363797880709E-11  .000000000000E+00
     .410000000000E+02 -.126218750000E+03  .422660462648E-08 -.223755680057E+01
    -.671111047268E-05  .794545270037E-02  .723078846931E-05  .515367491913E+04
     .000000000000E+00  .128522515297E-06  .291068540648E+01 -.100582838058E-06
     .972053728797E+00  .243843750000E+03  .651599857270E+00 -.790282918456E-08
    -.685742849656E-10  .000000000000E+00  .200900000000E+04  .000000000000E+00
     .200000000000E+01  .000000000000E+00  .558793544769E-08  .410000000000E+02
    -.355800000000E+04  .000000000000E+00  .000000000000E+00  .000000000000E+00
02 18 06 30 20  0  0.0  .708708539605E-04 -.108002495836E-10  .000000000000E+00
     .650000000000E+02 -.119468750000E+03  .457804783693E-08  .227517988343E+01
    -.643171370029E-05  .179143575951E-01  .592321157455E-05  .515377210236E+04
     .590400000000E+06  .121071934700E-06  .296939750968E+01 -.271946191788E-06
     .951098986782E+00  .256218750000E+03 -.184939320087E+01 -.786568478020E-08
    -.275011455331E-09  .000000000000E+00  .200700000000E+04  .000000000000E+00
     .400000000000E+01  .000000000000E+00 -.204890966415E-07  .650000000000E+02
     .583277000000E+06  .000000000000E+00  .000000000000E+00  .000000000000E+00
03 18 07 01  0  0  0.0  .982265919447E-04  .636646291241E-11  .000000000000E+00
     .870000000000E+02 -.182187500000E+02  .442089843388E-08 -.313573458686E+01
    -.101141631603E-05  .148375704885E-02  .106878578663E-04  .515373255539E+04
     .000000000000E+00 -.763684511185E-07 -.233015525497E+01 -.745058059692E-08
     .961160925628E+00  .171281250000E+03  .461698909053E+00 -.778175271266E-08
     .422517599554E-09  .000000000000E+00  .200900000000E+04  .000000000000E+00
     .200000000000E+01  .000000000000E+00  .232830643654E-08  .870000000000E+02
    -.312000000000E+03  .000000000000E+00  .000000000000E+00  .000000000000E+00
04 18 06 30 22  0  0.0  .746720470488E-04  .352429196937E-11  .000000000000E+00
     .610000000000E+02  .107218750000E+03  .516842957155E-08  .110415695028E+00
     .559538602829E-05  .981737370603E-02  .822357833385E-05  .515371348572E+04
     .597600000000E+06 -.428408384323E-07  .959528641134E+00  .180676579475E-06
     .978830755316E+00  .233593750000E+03  .932801107345E+00 -.788354266691E-08
     .193579491934E-09  .000000000000E+00  .200700000000E+04  .000000000000E+00
     .280000000000E+01  .630000000000E+02 -.195577740669E-07  .610000000000E+02
     .590539000000E+06  .000000000000E+00  .000000000000E+00  .000000000000E+00
05 18 06 30 20  0  0.0 -.530807301402E-05  .568434188608E-12  .000000000000E+00
     .510000000000E+02 -.109062500000E+02  .464912222603E-08 -.133602387750E+01
    -.607222318649E-06  .543217069935E-02  .991486012936E-05  .515373405838E+04
     .590400000000E+06  .128522515297E-06 -.223192877917E+01 -.707805156708E-07
     .948065768048E+00  .182562500000E+03  .622836753434E+00 -.790140055362E-08
     .300726812193E-09  .000000000000E+00  .200700000000E+04  .000000000000E+00
     .200000000000E+01  .000000000000E+00 -.111758708954E-07  .510000000000E+02
     .583218000000E+06  .000000000000E+00  .000000000000E+00  .000000000000E+00
06 18 06 30 18  0  0.0  .391520559788E-03 -.341060513165E-11  .000000000000E+00
     .360000000000E+02 -.112437500000E+03  .417088801994E-08  .106212349565E+01
    -.596232712269E-05  .108548812568E-02  .716559588909E-05  .515365615082E+04
     .583200000000E+06 -.745058059692E-08  .302294978524E+01 -.745058059692E-08
     .971764585964E+00  .246437500000E+03 -.105438479945E+01 -.787854245863E-08
    -.293940815243E-09  .000000000000E+00  .200700000000E+04  .000000000000E+00
     .400000000000E+01  .000000000000E+00  .465661287308E-08  .360000000000E+02
     .576077000000E+06  .000000000000E+00  .000000000000E+00  .000000000000E+00
07 18 06 30 14  0  0.0  .166737474501E-03 -.636646291241E-11  .000000000000E+00
     .820000000000E+02  .796875000000E+01  .452233123039E-08 -.187687398386E+01
     .108033418655E-06  .118338827742E-01  .915862619877E-05  .515365463829E+04
     .568800000000E+06  .171363353729E-06 -.979922523764E-01 -.614672899246E-07
     .958581365104E+00  .198031250000E+03 -.251874770781E+01 -.776568061463E-08
    -.253581991279E-09  .000000000000E+00  .200700000000E+04  .000000000000E+00
     .200000000000E+01  .000000000000E+00 -.111758708954E-07  .820000000000E+02
     .561619000000E+06  .000000000000E+00  .000000000000E+00  .000000000000E+00
08 18 07 01  0  0  0.0 -.106612686068E-03 -.125055521494E-11  .000000000000E+00
     .360000000000E+02  .171562500000E+02  .455447542647E-08  .252331176206E+00
     .981613993645E-06  .345009798184E-02  .103563070297E-05  .515358753014E+04
     .000000000000E+00  .298023223877E-07  .184558320335E+01 -.987201929092E-07
     .969173768286E+00  .362093750000E+03 -.405804018886E+00 -.842427947648E-08
     .184650548579E-09  .000000000000E+00  .200900000000E+04  .000000000000E+00
     .200000000000E+01  .000000000000E+00  .512227416039E-08  .360000000000E+02
    -.718200000000E+04  .000000000000E+00  .000000000000E+00  .000000000000E+00
09 18 06 30 12  0  0.0  .514342449605E-03 -.341060513165E-12  .000000000000E+00
     .460000000000E+02  .325000000000E+01  .509092634323E-08  .135304217907E+00
    -.465661287308E-07  .898756668903E-03  .488758087158E-05  .515358454704E+04
     .561600000000E+06  .111758708954E-07 -.117545375505E+01  .745058059692E-08
     .952221875886E+00  .277531250000E+03  .185366055924E+01 -.826462996930E-08
     .151077721565E-09  .000000000000E+00  .200700000000E+04  .000000000000E+00
     .400000000000E+01  .000000000000E+00  .931322574615E-09  .460000000000E+02
     .554469000000E+06  .000000000000E+00  .000000000000E+00  .000000000000E+00
10 18 07 01  0  0  0.0  .188818201423E-03  .227373675443E-12  .000000000000E+00
     .390000000000E+02 -.128750000000E+02  .452161691492E-08  .196910231267E+01
    -.616535544395E-06  .361205427907E-02  .101029872894E-04  .515366827583E+04
     .000000000000E+00 -.100582838058E-06 -.233359046311E+01  .633299350739E-07
     .961248861633E+00  .186875000000E+03 -.275053644937E+01 -.786532762247E-08
     .392159192147E-09  .000000000000E+00  .200900000000E+04  .000000000000E+00
     .200000000000E+01  .000000000000E+00  .186264514923E-08  .390000000000E+02
    -.718200000000E+04  .000000000000E+00  .000000000000E+00  .000000000000E+00
11 18 07 01  0  0  0.0 -.731948297471E-03  .147792889038E-11  .000000000000E+00
     .650000000000E+02 -.104375000000E+03  .581059917764E-08 -.290607511086E+01
    -.539608299732E-05  .169496790040E-01  .186264514923E-05  .515364573860E+04
     .000000000000E+00  .186264514923E-06  .248156846699E+01  .210478901863E-06
     .905914273480E+00  .307593750000E+03  .177555199096E+01 -.864607442942E-08
    -.689314426998E-10  .000000000000E+00  .200900000000E+04  .000000000000E+00
     .200000000000E+01  .000000000000E+00 -.121071934700E-07  .650000000000E+02
    -.577800000000E+04  .000000000000E+00  .000000000000E+00  .000000000000E+00
12 18 06 30 20  0  0.0  .324000138789E-03 -.250111042988E-11  .000000000000E+00
     .420000000000E+02  .108375000000E+03  .381480175895E-08  .693117412379E+00
     .538863241673E-05  .715775240678E-02  .764057040215E-05  .515356911469E+04
     .590400000000E+06 -.894069671631E-07  .994678837989E+00  .484287738800E-07
     .986366623775E+00  .246218750000E+03  .100076008604E+01 -.779461039110E-08
     .175007289756E-09  .000000000000E+00  .200700000000E+04  .000000000000E+00
     .200000000000E+01  .000000000000E+00 -.125728547573E-07  .420000000000E+02
     .583218000000E+06  .000000000000E+00  .000000000000E+00  .000000000000E+00
13 18 06 30 22  0  0.0 -.929576344788E-04  .454747350886E-12  .000000000000E+00
     .360000000000E+02  .178125000000E+01  .457304762865E-08 -.242967414429E+01
     .143423676491E-06  .331133126747E-02  .548548996449E-05  .515365432930E+04
     .597600000000E+06  .428408384323E-07 -.104348587543E+01 -.130385160446E-07
     .967993140731E+00  .280031250000E+03  .154690403943E+01 -.792890169915E-08
    -.141077305007E-09  .000000000000E+00  .200700000000E+04  .000000000000E+00
     .400000000000E+01  .000000000000E+00 -.111758708954E-07  .360000000000E+02
     .590477000000E+06  .000000000000E+00  .000000000000E+00  .000000000000E+00
14 18 06 30 23 59 44.0 -.975443981588E-04 -.113686837722E-12  .000000000000E+00
     .420000000000E+02  .443750000000E+01  .502235205827E-08 -.392037532588E+00
     .290572643280E-06  .100125694880E-01  .498816370964E-05  .515358989906E+04
     .604784000000E+06 -.596046447754E-07 -.108568402685E+01  .838190317154E-07
     .960521428544E+00  .283875000000E+03 -.194860549035E+01 -.839320675361E-08
    -.115361948145E-09  .000000000000E+00  .200700000000E+04  .000000000000E+00
     .200000000000E+01  .000000000000E+00 -.977888703346E-08  .420000000000E+02
     .603006000000E+06  .000000000000E+00  .000000000000E+00  .000000000000E+00
